0 COSMOS 1816
1 17359U 87009A   13282.80821911  .00000036  00000-0  21797-4 0   298
2 17359 082.9264 222.4613 0033199 155.1776 262.6335 13.74319254338870
0 COSMOS 1816
1 17359U 87009A   13283.82739694  .00000032  00000-0  17076-4 0   300
2 17359 082.9265 221.7054 0033252 152.3623 265.0415 13.74319390339016
0 COSMOS 1816
1 17359U 87009A   13285.86508024  .00000036  00000-0  21900-4 0   324
2 17359 082.9269 220.1942 0033361 146.8290 266.4381 13.74319484339299
0 COSMOS 1816
1 17359U 87009A   13287.18759339  .00000060  00000-0  46741-4 0   336
2 17359 082.9272 219.2134 0033411 143.2810 329.5033 13.74319380339470
0 COSMOS 1816
1 17359U 87009A   13288.20650509  .00000084  00000-0  72636-4 0   348
2 17359 082.9273 218.4579 0033440 140.5734 330.4896 13.74319490339618
0 COSMOS 1816
1 17359U 87009A   13289.37646409  .00000078  00000-0  65883-4 0   351
2 17359 082.9273 217.5904 0033487 137.4249 358.8099 13.74319545339774
0 COSMOS 1816
1 17359U 87009A   13290.46533448  .00000082  00000-0  70643-4 0   367
2 17359 082.9273 216.7831 0033536 134.5121 345.9309 13.74319553339923
0 COSMOS 1816
1 17359U 87009A   13292.21021759  .00000084  00000-0  72050-4 0   376
2 17359 082.9272 215.4895 0033624 129.7730 338.7069 13.74319714340168
0 COSMOS 1816
1 17359U 87009A   13293.52295265  .00000071  00000-0  58879-4 0   386
2 17359 082.9271 214.5161 0033692 126.2435 353.4030 13.74319919340341
0 COSMOS 1816
1 17359U 87009A   13294.81432098  .00000064  00000-0  51368-4 0   395
2 17359 082.9270 213.5586 0033724 122.7884 262.3718 13.74320276340524
0 COSMOS 1816
1 17359U 87009A   13296.21450742  .00000061  00000-0  47701-4 0   402
2 17359 082.9271 212.5204 0033726 119.0782 349.6781 13.74320520340711
